{"type": "FeatureCollection", "features": [ {"type": "Feature", "properties": {"norad_id": 44543, "name": "BEIDOU-3 M23 (C45)", "group": "beidou", "lat": -40.91274600646216, "lon": 46.88718586590483, "alt_km": 21547.947003960435, "timestamp": "2025-12-27T08:36:18.647767+00:00", "meta": {"OBJECT_NAME": "BEIDOU-3 M23 (C45)", "OBJECT_ID": "2019-061B", "EPOCH": "2025-12-26T11:37:48.857664", "MEAN_MOTION": 1.86227559, "ECCENTRICITY": 0.0005976, "INCLINATION": 54.3995, "RA_OF_ASC_NODE": 188.5205, "ARG_OF_PERICENTER": 25.6827, "MEAN_ANOMALY": 342.0898, "EPHEMERIS_TYPE": 0, "CLASSIFICATION_TYPE": "U", "NORAD_CAT_ID": 44543, "ELEMENT_SET_NO": 999, "REV_AT_EPOCH": 4258, "BSTAR": 0, "MEAN_MOTION_DOT": 1.22e-06, "MEAN_MOTION_DDOT": 0}, "tle": {"line1": "1 44543U 19061B   25360.48459326  .00000122  00000+0  00000+0 0  9997", "line2": "2 44543  54.3995 188.5205 0005976  25.6827 342.0898  1.86227559 42581"}}, "geometry": {"type": "Point", "coordinates": [46.88718586590483, -40.91274600646216]}}, {"type": "Feature", "properties": {"norad_id": 44793, "name": "BEIDOU-3 M22 (C44)", "group": "beidou", "lat": 48.84612658344848, "lon": 1.7576623636175615, "alt_km": 21509.97359347067, "timestamp": "2025-12-27T08:36:18.647778+00:00", "meta": {"OBJECT_NAME": "BEIDOU-3 M22 (C44)", "OBJECT_ID": "2019-078A", "EPOCH": "2025-12-26T04:23:18.195072", "MEAN_MOTION": 1.86232141, "ECCENTRICITY": 0.0006121, "INCLINATION": 54.096, "RA_OF_ASC_NODE": 305.9151, "ARG_OF_PERICENTER": 23.7349, "MEAN_ANOMALY": 336.3032, "EPHEMERIS_TYPE": 0, "CLASSIFICATION_TYPE": "U", "NORAD_CAT_ID": 44793, "ELEMENT_SET_NO": 999, "REV_AT_EPOCH": 4142, "BSTAR": 0, "MEAN_MOTION_DOT": -5.6e-07, "MEAN_MOTION_DDOT": 0}, "tle": {"line1": "1 44793U 19078A   25360.18284948 -.00000056  00000+0  00000+0 0  9992", "line2": "2 44793  54.0960 305.9151 0006121  23.7349 336.3032  1.86232141 41424"}}, "geometry": {"type": "Point", "coordinates": [1.7576623636175615, 48.84612658344848]}}, {"type": "Feature", "properties": {"norad_id": 44794, "name": "BEIDOU-3 M21 (C43)", "group": "beidou", "lat": -19.45579652095922, "lon": -69.00459517247938, "alt_km": 21521.417515656536, "timestamp": "2025-12-27T08:36:18.647789+00:00", "meta": {"OBJECT_NAME": "BEIDOU-3 M21 (C43)", "OBJECT_ID": "2019-078B", "EPOCH": "2025-12-25T05:55:32.884896", "MEAN_MOTION": 1.86227898, "ECCENTRICITY": 0.0004304, "INCLINATION": 54.0703, "RA_OF_ASC_NODE": 305.9129, "ARG_OF_PERICENTER": 12.6939, "MEAN_ANOMALY": 347.3266, "EPHEMERIS_TYPE": 0, "CLASSIFICATION_TYPE": "U", "NORAD_CAT_ID": 44794, "ELEMENT_SET_NO": 999, "REV_AT_EPOCH": 4141, "BSTAR": 0, "MEAN_MOTION_DOT": -5.3e-07, "MEAN_MOTION_DDOT": 0}, "tle": {"line1": "1 44794U 19078B   25359.24690839 -.00000053  00000+0  00000+0 0  9995", "line2": "2 44794  54.0703 305.9129 0004304  12.6939 347.3266  1.86227898 41411"}}, "geometry": {"type": "Point", "coordinates": [-69.00459517247938, -19.45579652095922]}}, {"type": "Feature", "properties": {"norad_id": 44864, "name": "BEIDOU-3 M19 (C41)", "group": "beidou", "lat": 7.120189110907482, "lon": -116.26484531935684, "alt_km": 21548.247642704766, "timestamp": "2025-12-27T08:36:18.647800+00:00", "meta": {"OBJECT_NAME": "BEIDOU-3 M19 (C41)", "OBJECT_ID": "2019-090A", "EPOCH": "2025-12-27T02:26:46.358016", "MEAN_MOTION": 1.86231443, "ECCENTRICITY": 0.0018509, "INCLINATION": 56.4046, "RA_OF_ASC_NODE": 68.4857, "ARG_OF_PERICENTER": 285.4212, "MEAN_ANOMALY": 74.1614, "EPHEMERIS_TYPE": 0, "CLASSIFICATION_TYPE": "U", "NORAD_CAT_ID": 44864, "ELEMENT_SET_NO": 999, "REV_AT_EPOCH": 4102, "BSTAR": 0, "MEAN_MOTION_DOT": -3.5e-07, "MEAN_MOTION_DDOT": 0}, "tle": {"line1": "1 44864U 19090A   25361.10192544 -.00000035  00000+0  00000+0 0  9995", "line2": "2 44864  56.4046  68.4857 0018509 285.4212  74.1614  1.86231443 41020"}}, "geometry": {"type": "Point", "coordinates": [-116.26484531935684, 7.120189110907482]}}, {"type": "Feature", "properties": {"norad_id": 44865, "name": "BEIDOU-3 M20 (C42)", "group": "beidou", "lat": -55.401096186267175, "lon": -37.239014298728335, "alt_km": 21498.853574030727, "timestamp": "2025-12-27T08:36:18.647811+00:00", "meta": {"OBJECT_NAME": "BEIDOU-3 M20 (C42)", "OBJECT_ID": "2019-090B", "EPOCH": "2025-12-26T13:03:31.682016", "MEAN_MOTION": 1.86231463, "ECCENTRICITY": 0.0015612, "INCLINATION": 56.4057, "RA_OF_ASC_NODE": 68.5385, "ARG_OF_PERICENTER": 297.4355, "MEAN_ANOMALY": 137.7791, "EPHEMERIS_TYPE": 0, "CLASSIFICATION_TYPE": "U", "NORAD_CAT_ID": 44865, "ELEMENT_SET_NO": 999, "REV_AT_EPOCH": 4100, "BSTAR": 0, "MEAN_MOTION_DOT": -3.2e-07, "MEAN_MOTION_DDOT": 0}, "tle": {"line1": "1 44865U 19090B   25360.54411669 -.00000032  00000+0  00000+0 0  9992", "line2": "2 44865  56.4057  68.5385 0015612 297.4355 137.7791  1.86231463 41005"}}, "geometry": {"type": "Point", "coordinates": [-37.239014298728335, -55.401096186267175]}}, {"type": "Feature", "properties": {"norad_id": 45344, "name": "BEIDOU-3 G2 (C60)", "group": "beidou", "lat": -2.507996252632501, "lon": -54.791181696648344, "alt_km": 35777.983930808354, "timestamp": "2025-12-27T08:36:18.647823+00:00", "meta": {"OBJECT_NAME": "BEIDOU-3 G2 (C60)", "OBJECT_ID": "2020-017A", "EPOCH": "2025-12-27T03:39:38.735424", "MEAN_MOTION": 1.00271784, "ECCENTRICITY": 0.0002178, "INCLINATION": 2.5224, "RA_OF_ASC_NODE": 44.1623, "ARG_OF_PERICENTER": 237.3023, "MEAN_ANOMALY": 309.3794, "EPHEMERIS_TYPE": 0, "CLASSIFICATION_TYPE": "U", "NORAD_CAT_ID": 45344, "ELEMENT_SET_NO": 999, "REV_AT_EPOCH": 2153, "BSTAR": 0, "MEAN_MOTION_DOT": -1.19e-06, "MEAN_MOTION_DDOT": 0}, "tle": {"line1": "1 45344U 20017A   25361.15253166 -.00000119  00000+0  00000+0 0  9996", "line2": "2 45344   2.5224  44.1623 0002178 237.3023 309.3794  1.00271784 21531"}}, "geometry": {"type": "Point", "coordinates": [-54.791181696648344, -2.507996252632501]}}, {"type": "Feature", "properties": {"norad_id": 45807, "name": "BEIDOU-3 G3 (C61)", "group": "beidou", "lat": -2.0346625506212512, "lon": -24.39544899511046, "alt_km": 35766.55359319995, "timestamp": "2025-12-27T08:36:18.647835+00:00", "meta": {"OBJECT_NAME": "BEIDOU-3 G3 (C61)", "OBJECT_ID": "2020-040A", "EPOCH": "2025-12-26T22:07:13.837152", "MEAN_MOTION": 1.00266424, "ECCENTRICITY": 0.00065872, "INCLINATION": 2.0233, "RA_OF_ASC_NODE": 66.7, "ARG_OF_PERICENTER": 308.2917, "MEAN_ANOMALY": 162.9749, "EPHEMERIS_TYPE": 0, "CLASSIFICATION_TYPE": "U", "NORAD_CAT_ID": 45807, "ELEMENT_SET_NO": 999, "REV_AT_EPOCH": 2034, "BSTAR": 0, "MEAN_MOTION_DOT": -3.32e-06, "MEAN_MOTION_DDOT": 0}, "tle": {"line1": "1 45807U 20040A   25360.92168793 -.00000332  00000+0  00000+0 0  9998", "line2": "2 45807   2.0233  66.7000 0006587 308.2917 162.9749  1.00266424 20343"}}, "geometry": {"type": "Point", "coordinates": [-24.39544899511046, -2.0346625506212512]}}, {"type": "Feature", "properties": {"norad_id": 56564, "name": "BEIDOU-3 G4 (C62)", "group": "beidou", "lat": 0.783073155504484, "lon": 25.190659003450552, "alt_km": 35795.33437994924, "timestamp": "2025-12-27T08:36:18.647847+00:00", "meta": {"OBJECT_NAME": "BEIDOU-3 G4 (C62)", "OBJECT_ID": "2023-066A", "EPOCH": "2025-12-27T04:37:38.522208", "MEAN_MOTION": 1.00270523, "ECCENTRICITY": 0.0002494, "INCLINATION": 0.785, "RA_OF_ASC_NODE": 303.1928, "ARG_OF_PERICENTER": 231.2375, "MEAN_ANOMALY": 150.9549, "EPHEMERIS_TYPE": 0, "CLASSIFICATION_TYPE": "U", "NORAD_CAT_ID": 56564, "ELEMENT_SET_NO": 999, "REV_AT_EPOCH": 967, "BSTAR": 0, "MEAN_MOTION_DOT": -8.9e-07, "MEAN_MOTION_DDOT": 0}, "tle": {"line1": "1 56564U 23066A   25361.19280697 -.00000089  00000+0  00000+0 0  9998", "line2": "2 56564   0.7850 303.1928 0002494 231.2375 150.9549  1.00270523  9671"}}, "geometry": {"type": "Point", "coordinates": [25.190659003450552, 0.783073155504484]}}, {"type": "Feature", "properties": {"norad_id": 58654, "name": "BEIDOU-3 M28 (C50)", "group": "beidou", "lat": -53.41353794290697, "lon": 0.8947225667851354, "alt_km": 21525.761991359686, "timestamp": "2025-12-27T08:36:18.647859+00:00", "meta": {"OBJECT_NAME": "BEIDOU-3 M28 (C50)", "OBJECT_ID": "2023-207A", "EPOCH": "2025-12-26T09:34:30.666720", "MEAN_MOTION": 1.86229622, "ECCENTRICITY": 0.0002968, "INCLINATION": 55.596, "RA_OF_ASC_NODE": 68.1388, "ARG_OF_PERICENTER": 276.5456, "MEAN_ANOMALY": 83.472, "EPHEMERIS_TYPE": 0, "CLASSIFICATION_TYPE": "U", "NORAD_CAT_ID": 58654, "ELEMENT_SET_NO": 999, "REV_AT_EPOCH": 1362, "BSTAR": 0, "MEAN_MOTION_DOT": -3.3e-07, "MEAN_MOTION_DDOT": 0}, "tle": {"line1": "1 58654U 23207A   25360.39896605 -.00000033  00000+0  00000+0 0  9999", "line2": "2 58654  55.5960  68.1388 0002968 276.5456  83.4720  1.86229622 13628"}}, "geometry": {"type": "Point", "coordinates": [0.8947225667851354, -53.41353794290697]}}, {"type": "Feature", "properties": {"norad_id": 58655, "name": "BEIDOU-3 M26 (C48)", "group": "beidou", "lat": 45.07191194928941, "lon": 111.42988562576028, "alt_km": 21533.638176789154, "timestamp": "2025-12-27T08:36:18.647870+00:00", "meta": {"OBJECT_NAME": "BEIDOU-3 M26 (C48)", "OBJECT_ID": "2023-207B", "EPOCH": "2025-12-26T17:36:09.851904", "MEAN_MOTION": 1.86231163, "ECCENTRICITY": 0.00042763, "INCLINATION": 55.5984, "RA_OF_ASC_NODE": 68.1137, "ARG_OF_PERICENTER": 261.988, "MEAN_ANOMALY": 98.0139, "EPHEMERIS_TYPE": 0, "CLASSIFICATION_TYPE": "U", "NORAD_CAT_ID": 58655, "ELEMENT_SET_NO": 999, "REV_AT_EPOCH": 1361, "BSTAR": 0, "MEAN_MOTION_DOT": -3.4e-07, "MEAN_MOTION_DDOT": 0}, "tle": {"line1": "1 58655U 23207B   25360.73344736 -.00000034  00000+0  00000+0 0  9992", "line2": "2 58655  55.5984  68.1137 0004276 261.9880  98.0139  1.86231163 13618"}}, "geometry": {"type": "Point", "coordinates": [111.42988562576028, 45.07191194928941]}}]}